GLOBALSTAR M045         
1 25676U 99019A   24199.87345024 -.00000043  00000+0  44812-3 0  9991
2 25676  51.9944 178.1181 0000603 303.5497  86.9277 12.27041611152357
GLOBALSTAR M019         
1 25677U 99019B   24199.97781781  .00000020  00000+0  11440-2 0  9991
2 25677  51.9885 284.6751 0000716  44.3294 126.8749 12.13860646144551
GLOBALSTAR M042         
1 25679U 99019D   24199.97639497 -.00000036  00000+0  53208-3 0  9996
2 25679  52.0011 274.4289 0002456 330.0803 201.4604 12.22065113144391
GLOBALSTAR M025         
1 25770U 99031A   24199.42707365 -.00000029  00000+0  11838-2 0  9996
2 25770  51.9776 214.7651 0001690 298.7074 206.7962 11.22551404444118
GLOBALSTAR M049         
1 25771U 99031B   24199.35869384  .00000021  00000+0  30013-2 0  9996
2 25771  51.9836 232.8604 0003058 176.3652 183.7167 11.12106839 80178
GLOBALSTAR M047         
1 25772U 99031C   24199.46263533 -.00000048  00000+0  58769-3 0  9992
2 25772  51.9819 261.5751 0016025  48.9830 311.2358 11.31921172433204
GLOBALSTAR M052         
1 25773U 99031D   24199.86729957 -.00000015  00000+0  17085-2 0  9993
2 25773  51.9897 345.0844 0002143 352.8632 123.2844 11.15052142 99040
